{
  "links" : {
    "next" : "https://api.nasa.gov/neo/rest/v1/neo/browse?page=15&size=20&api_key=jqAGvNAwUIBu4fl9FSOjdm3V4F7hIglRzI6pdX9d",
    "prev" : "https://api.nasa.gov/neo/rest/v1/neo/browse?page=13&size=20&api_key=jqAGvNAwUIBu4fl9FSOjdm3V4F7hIglRzI6pdX9d",
    "self" : "https://api.nasa.gov/neo/rest/v1/neo/browse?page=14&size=20&api_key=jqAGvNAwUIBu4fl9FSOjdm3V4F7hIglRzI6pdX9d"
  },
  "page" : {
    "size" : 20,
    "total_elements" : 20750,
    "total_pages" : 1038,
    "number" : 14
  },
  "near_earth_objects" : [ {
    "links" : {
      "self" : "https://api.nasa.gov/neo/rest/v1/neo/3170226?api_key=jqAGvNAwUIBu4fl9FSOjdm3V4F7hIglRzI6pdX9d"
    },
    "neo_reference_id" : "3170226",
    "name" : "(2003 YP94)",
    "designation" : "2003 YP94",
    "nasa_jpl_url" : "http://ssd.jpl.nasa.gov/sbdb.cgi?sstr=3170226",
    "absolute_magnitude_h" : 23.8,
    "estimated_diameter" : {
      "kilometers" : {
        "estimated_diameter_min" : 0.046190746,
        "estimated_diameter_max" : 0.1032856481
      },
      "meters" : {
        "estimated_diameter_min" : 46.1907460282,
        "estimated_diameter_max" : 103.2856480504
      },
      "miles" : {
        "estimated_diameter_min" : 0.0287015901,
        "estimated_diameter_max" : 0.0641787064
      },
      "feet" : {
        "estimated_diameter_min" : 151.544447199,
        "estimated_diameter_max" : 338.8636855496
      }
    },
    "is_potentially_hazardous_asteroid" : false,
    "close_approach_data" : [ {
      "close_approach_date" : "2004-01-01",
      "epoch_date_close_approach" : 1072944000000,
      "relative_velocity" : {
        "kilometers_per_second" : "8.0687996216",
        "kilometers_per_hour" : "29047.6786377509",
        "miles_per_hour" : "18049.0978735514"
      },
      "miss_distance" : {
        "astronomical" : "0.0559212758",
        "lunar" : "21.7533760071",
        "kilometers" : "8365704",
        "miles" : "5198207.5"
      },
      "orbiting_body" : "Earth"
    } ],
    "orbital_data" : {
      "orbit_id" : "10",
      "orbit_determination_date" : "2017-04-06 09:13:22",
      "first_observation_date" : "2003-12-22",
      "last_observation_date" : "2004-01-02",
      "data_arc_in_days" : 11,
      "observations_used" : 38,
      "orbit_uncertainty" : "8",
      "minimum_orbit_intersection" : ".0524293",
      "jupiter_tisserand_invariant" : "3.481",
      "epoch_osculation" : "2453001.5",
      "eccentricity" : ".5349867509989042",
      "semi_major_axis" : "2.16589198330392",
      "inclination" : "8.214947209843931",
      "ascending_node_longitude" : "263.6825138992825",
      "orbital_period" : "1164.269760255194",
      "perihelion_distance" : "1.007168468141583",
      "perihelion_argument" : "211.0446164674654",
      "aphelion_distance" : "3.324615498466257",
      "perihelion_time" : "2453018.670681797060",
      "mean_anomaly" : "354.6907102993152",
      "mean_motion" : ".3092066910001102",
      "equinox" : "J2000",
      "orbit_class" : {
        "orbit_class_type" : "APO",
        "orbit_class_range" : "a (semi-major axis) > 1.0 AU; q (perihelion) < 1.017 AU",
        "orbit_class_description" : "Near-Earth asteroid orbits which cross the Earth’s orbit similar to that of 1862 Apollo"
      }
    },
    "is_sentry_object" : false
  }, {
    "links" : {
      "self" : "https://api.nasa.gov/neo/rest/v1/neo/3170205?api_key=jqAGvNAwUIBu4fl9FSOjdm3V4F7hIglRzI6pdX9d"
    },
    "neo_reference_id" : "3170205",
    "name" : "(2003 YR117)",
    "designation" : "2003 YR117",
    "nasa_jpl_url" : "http://ssd.jpl.nasa.gov/sbdb.cgi?sstr=3170205",
    "absolute_magnitude_h" : 22.9,
    "estimated_diameter" : {
      "kilometers" : {
        "estimated_diameter_min" : 0.0699125232,
        "estimated_diameter_max" : 0.1563291544
      },
      "meters" : {
        "estimated_diameter_min" : 69.9125232246,
        "estimated_diameter_max" : 156.3291544087
      },
      "miles" : {
        "estimated_diameter_min" : 0.0434416145,
        "estimated_diameter_max" : 0.097138403
      },
      "feet" : {
        "estimated_diameter_min" : 229.3718026961,
        "estimated_diameter_max" : 512.8909429502
      }
    },
    "is_potentially_hazardous_asteroid" : false,
    "close_approach_data" : [ {
      "close_approach_date" : "2003-12-23",
      "epoch_date_close_approach" : 1072166400000,
      "relative_velocity" : {
        "kilometers_per_second" : "13.4425837105",
        "kilometers_per_hour" : "48393.3013577294",
        "miles_per_hour" : "30069.7155019736"
      },
      "miss_distance" : {
        "astronomical" : "0.0259825276",
        "lunar" : "10.1072034836",
        "kilometers" : "3886930.75",
        "miles" : "2415226.75"
      },
      "orbiting_body" : "Earth"
    } ],
    "orbital_data" : {
      "orbit_id" : "12",
      "orbit_determination_date" : "2017-04-06 09:13:21",
      "first_observation_date" : "2003-12-28",
      "last_observation_date" : "2004-01-12",
      "data_arc_in_days" : 15,
      "observations_used" : 47,
      "orbit_uncertainty" : "8",
      "minimum_orbit_intersection" : ".0228092",
      "jupiter_tisserand_invariant" : "3.782",
      "epoch_osculation" : "2453005.5",
      "eccentricity" : ".5037955589600497",
      "semi_major_axis" : "1.861136709982199",
      "inclination" : "17.33689693399243",
      "ascending_node_longitude" : "95.03578331471563",
      "orbital_period" : "927.3973274870881",
      "perihelion_distance" : ".9235043008756492",
      "perihelion_argument" : "317.3926616173096",
      "aphelion_distance" : "2.798769119088749",
      "perihelion_time" : "2452966.553762659833",
      "mean_anomaly" : "15.11827242423806",
      "mean_motion" : ".3881831328708591",
      "equinox" : "J2000",
      "orbit_class" : {
        "orbit_class_type" : "APO",
        "orbit_class_range" : "a (semi-major axis) > 1.0 AU; q (perihelion) < 1.017 AU",
        "orbit_class_description" : "Near-Earth asteroid orbits which cross the Earth’s orbit similar to that of 1862 Apollo"
      }
    },
    "is_sentry_object" : false
  }, {
    "links" : {
      "self" : "https://api.nasa.gov/neo/rest/v1/neo/3170209?api_key=jqAGvNAwUIBu4fl9FSOjdm3V4F7hIglRzI6pdX9d"
    },
    "neo_reference_id" : "3170209",
    "name" : "(2003 YH136)",
    "designation" : "2003 YH136",
    "nasa_jpl_url" : "http://ssd.jpl.nasa.gov/sbdb.cgi?sstr=3170209",
    "absolute_magnitude_h" : 19.4,
    "estimated_diameter" : {
      "kilometers" : {
        "estimated_diameter_min" : 0.3503926411,
        "estimated_diameter_max" : 0.7835017643
      },
      "meters" : {
        "estimated_diameter_min" : 350.3926411083,
        "estimated_diameter_max" : 783.5017643338
      },
      "miles" : {
        "estimated_diameter_min" : 0.2177238258,
        "estimated_diameter_max" : 0.4868452748
      },
      "feet" : {
        "estimated_diameter_min" : 1149.5821926537,
        "estimated_diameter_max" : 2570.543928497
      }
    },
    "is_potentially_hazardous_asteroid" : true,
    "close_approach_data" : [ {
      "close_approach_date" : "2004-01-13",
      "epoch_date_close_approach" : 1073980800000,
      "relative_velocity" : {
        "kilometers_per_second" : "42.174250782",
        "kilometers_per_hour" : "151827.3028151071",
        "miles_per_hour" : "94339.5815741981"
      },
      "miss_distance" : {
        "astronomical" : "0.2667527252",
        "lunar" : "103.7668075562",
        "kilometers" : "39905640",
        "miles" : "24796214"
      },
      "orbiting_body" : "Earth"
    }, {
      "close_approach_date" : "2060-06-24",
      "epoch_date_close_approach" : 2855286000000,
      "relative_velocity" : {
        "kilometers_per_second" : "10.5544746352",
        "kilometers_per_hour" : "37996.1086868266",
        "miles_per_hour" : "23609.3043115451"
      },
      "miss_distance" : {
        "astronomical" : "1.3400785206",
        "lunar" : "521.2905273438",
        "kilometers" : "200472880",
        "miles" : "124568080"
      },
      "orbiting_body" : "Juptr"
    } ],
    "orbital_data" : {
      "orbit_id" : "14",
      "orbit_determination_date" : "2017-04-06 09:13:20",
      "first_observation_date" : "2003-12-28",
      "last_observation_date" : "2004-01-11",
      "data_arc_in_days" : 14,
      "observations_used" : 35,
      "orbit_uncertainty" : "9",
      "minimum_orbit_intersection" : ".00816517",
      "jupiter_tisserand_invariant" : "2.791",
      "epoch_osculation" : "2453008.5",
      "eccentricity" : ".8948610991805497",
      "semi_major_axis" : "2.349765280155637",
      "inclination" : "16.04018460599573",
      "ascending_node_longitude" : "306.7133529391914",
      "orbital_period" : "1315.634188020418",
      "perihelion_distance" : ".2470517387392714",
      "perihelion_argument" : "304.1305318600527",
      "aphelion_distance" : "4.452478821572002",
      "perihelion_time" : "2453052.191293608782",
      "mean_anomaly" : "348.0446511329809",
      "mean_motion" : ".2736322932909471",
      "equinox" : "J2000",
      "orbit_class" : {
        "orbit_class_type" : "APO",
        "orbit_class_range" : "a (semi-major axis) > 1.0 AU; q (perihelion) < 1.017 AU",
        "orbit_class_description" : "Near-Earth asteroid orbits which cross the Earth’s orbit similar to that of 1862 Apollo"
      }
    },
    "is_sentry_object" : false
  } ]
}